SEEDS II (CO-66)        
1 32791U 08021J   26068.92109284  .00023758  00000+0  84213-3 0  9995
2 32791  97.7519  62.3611 0001448 359.2618   0.8619 15.29097235972108
STARLINK-32378          
1 61064U 24164Q   26068.33898372  .00000629  00000+0  33371-4 0  9996
2 61064  53.1611  92.7634 0001367  57.5874 302.5259 15.30186398 83427
